{
    "links": {
        "self": "http://www.neowsapp.com/rest/v1/neo/3740343?api_key=iIulBulltgU6a56xZRHN4H3l9WmuAYTsLGpBGhQ2"
    },
    "id": "3740343",
    "neo_reference_id": "3740343",
    "name": "(2016 AV192)",
    "designation": "2016 AV192",
    "nasa_jpl_url": "http://ssd.jpl.nasa.gov/sbdb.cgi?sstr=3740343",
    "absolute_magnitude_h": 25.7,
    "estimated_diameter": {
        "kilometers": {
            "estimated_diameter_min": 0.0192555078,
            "estimated_diameter_max": 0.0430566244
        },
        "meters": {
            "estimated_diameter_min": 19.2555078188,
            "estimated_diameter_max": 43.0566244241
        },
        "miles": {
            "estimated_diameter_min": 0.0119648141,
            "estimated_diameter_max": 0.0267541378
        },
        "feet": {
            "estimated_diameter_min": 63.1742402722,
            "estimated_diameter_max": 141.2618956756
        }
    },
    "is_potentially_hazardous_asteroid": false,
    "close_approach_data": [
        {
            "close_approach_date": "1962-01-18",
            "close_approach_date_full": "1962-Jan-18 07:14",
            "epoch_date_close_approach": -250965960000,
            "relative_velocity": {
                "kilometers_per_second": "15.7813047446",
                "kilometers_per_hour": "56812.697080439",
                "miles_per_hour": "35301.2005831206"
            },
            "miss_distance": {
                "astronomical": "0.3093699521",
                "lunar": "120.3449113669",
                "kilometers": "46281085.876162027",
                "miles": "28757733.2496368926"
            },
            "orbiting_body": "Earth"
        },
        {
            "close_approach_date": "1965-09-16",
            "close_approach_date_full": "1965-Sep-16 21:49",
            "epoch_date_close_approach": -135396660000,
            "relative_velocity": {
                "kilometers_per_second": "20.0749008877",
                "kilometers_per_hour": "72269.6431958604",
                "miles_per_hour": "44905.5457957834"
            },
            "miss_distance": {
                "astronomical": "0.4735123721",
                "lunar": "184.1963127469",
                "kilometers": "70836442.284807427",
                "miles": "44015724.1995274126"
            },
            "orbiting_body": "Earth"
        },
        {
            "close_approach_date": "2014-01-27",
            "close_approach_date_full": "2014-Jan-27 19:37",
            "epoch_date_close_approach": 1390851420000,
            "relative_velocity": {
                "kilometers_per_second": "20.8369736476",
                "kilometers_per_hour": "75013.105131189",
                "miles_per_hour": "46610.2263522102"
            },
            "miss_distance": {
                "astronomical": "0.4804798801",
                "lunar": "186.9066733589",
                "kilometers": "71878766.640815387",
                "miles": "44663394.5214788606"
            },
            "orbiting_body": "Earth"
        },
        {
            "close_approach_date": "2015-12-28",
            "close_approach_date_full": "2015-Dec-28 10:18",
            "epoch_date_close_approach": 1451297880000,
            "relative_velocity": {
                "kilometers_per_second": "7.3908303041",
                "kilometers_per_hour": "26606.9890946881",
                "miles_per_hour": "16532.5483071966"
            },
            "miss_distance": {
                "astronomical": "0.048539516",
                "lunar": "18.881871724",
                "kilometers": "7261408.20443092",
                "miles": "4512029.832629896"
            },
            "orbiting_body": "Earth"
        },
        {
            "close_approach_date": "2017-09-30",
            "close_approach_date_full": "2017-Sep-30 02:22",
            "epoch_date_close_approach": 1506738120000,
            "relative_velocity": {
                "kilometers_per_second": "13.7727581392",
                "kilometers_per_hour": "49581.9293010444",
                "miles_per_hour": "30808.2826815295"
            },
            "miss_distance": {
                "astronomical": "0.270173954",
                "lunar": "105.097668106",
                "kilometers": "40417448.04787798",
                "miles": "25114237.654276924"
            },
            "orbiting_body": "Earth"
        }
    ],
    "orbital_data": {
        "orbit_id": "5",
        "orbit_determination_date": "2017-04-06 08:29:05",
        "first_observation_date": "2016-01-14",
        "last_observation_date": "2016-01-30",
        "data_arc_in_days": 16,
        "observations_used": 25,
        "orbit_uncertainty": "8",
        "minimum_orbit_intersection": ".0429558",
        "jupiter_tisserand_invariant": "4.363",
        "epoch_osculation": "2457404.5",
        "eccentricity": ".3735093374915349",
        "semi_major_axis": "1.551077951848154",
        "inclination": "5.357683687918305",
        "ascending_node_longitude": "295.5512427480828",
        "orbital_period": "705.5842267562956",
        "perihelion_distance": ".9717358536556233",
        "perihelion_argument": "127.7567008782117",
        "aphelion_distance": "2.130420050040685",
        "perihelion_time": "2457358.033925556574",
        "mean_anomaly": "23.70771080942975",
        "mean_motion": ".5102154871786012",
        "equinox": "J2000",
        "orbit_class": {
            "orbit_class_type": "APO",
            "orbit_class_description": "Near-Earth asteroid orbits which cross the Earth’s orbit similar to that of 1862 Apollo",
            "orbit_class_range": "a (semi-major axis) > 1.0 AU; q (perihelion) < 1.017 AU"
        }
    },
    "is_sentry_object": false
}